start=new Date('2022-12-11T00:00:00.000Z').valueOf();
sats=[{"GP_ID":"219932504","CLASSIFICATION_TYPE":"U","BSTAR":"-0.00006259000000","INCLINATION":"53.0558","DECAY_DATE":null,"MEAN_MOTION":"15.06395228","RA_OF_ASC_NODE":"347.9038","REF_FRAME":"TEME","TIME_SYSTEM":"UTC","LAUNCH_DATE":"2021-05-26","SEMIMAJOR_AXIS":"6925.363","MEAN_MOTION_DOT":"-0.00001213","FILE":"3688140","NORAD_CAT_ID":"48688","MEAN_ELEMENT_THEORY":"SGP4","PERIAPSIS":"546.259","MEAN_ANOMALY":"308.1933","REV_AT_EPOCH":"8581","ARG_OF_PERICENTER":"51.9182","TLE_LINE1":"1 48688U 21044BC  22344.33267378 -.00001213  00000-0 -62590-4 0  9994","PERIOD":"95.592","ECCENTRICITY":"0.00014000","OBJECT_ID":"2021-044BC","OBJECT_NAME":"STARLINK-2742","SITE":"AFETR","TLE_LINE2":"2 48688  53.0558 347.9038 0001400  51.9182 308.1933 15.06395228 85817","ELEMENT_SET_NO":"999","MEAN_MOTION_DDOT":"0.0000000000000","APOAPSIS":"548.198","COUNTRY_CODE":"US","EPOCH":"2022-12-10T07:59:03.014592","OBJECT_TYPE":"PAYLOAD","RCS_SIZE":"LARGE","CENTER_NAME":"EARTH","EPHEMERIS_TYPE":"0"},{"MEAN_ANOMALY":"290.5656","PERIAPSIS":"546.249","REV_AT_EPOCH":"8574","MEAN_ELEMENT_THEORY":"SGP4","MEAN_MOTION_DOT":"-0.00002843","FILE":"3688140","NORAD_CAT_ID":"48689","ECCENTRICITY":"0.00014090","ARG_OF_PERICENTER":"69.5485","PERIOD":"95.592","TLE_LINE1":"1 48689U 21044BD  22344.33775157 -.00002843  00000-0 -17208-3 0  9999","BSTAR":"-0.00017208000000","CLASSIFICATION_TYPE":"U","GP_ID":"219931255","DECAY_DATE":null,"INCLINATION":"53.0558","TIME_SYSTEM":"UTC","SEMIMAJOR_AXIS":"6925.360","LAUNCH_DATE":"2021-05-26","REF_FRAME":"TEME","RA_OF_ASC_NODE":"352.8554","MEAN_MOTION":"15.06396345","RCS_SIZE":"LARGE","OBJECT_TYPE":"PAYLOAD","EPHEMERIS_TYPE":"0","CENTER_NAME":"EARTH","TLE_LINE2":"2 48689  53.0558 352.8554 0001409  69.5485 290.5656 15.06396345 85745","OBJECT_NAME":"STARLINK-2617","SITE":"AFETR","OBJECT_ID":"2021-044BD","COUNTRY_CODE":"US","EPOCH":"2022-12-10T08:06:21.735648","ELEMENT_SET_NO":"999","APOAPSIS":"548.201","MEAN_MOTION_DDOT":"0.0000000000000"},{"REV_AT_EPOCH":"8560","MEAN_ANOMALY":"290.1406","PERIAPSIS":"546.319","MEAN_ELEMENT_THEORY":"SGP4","MEAN_MOTION_DOT":"-0.00002288","FILE":"3688140","NORAD_CAT_ID":"48690","ECCENTRICITY":"0.00013360","PERIOD":"95.593","TLE_LINE1":"1 48690U 21044BE  22344.34419466 -.00002288  00000-0 -13479-3 0  9999","ARG_OF_PERICENTER":"69.9727","DECAY_DATE":null,"INCLINATION":"53.0561","CLASSIFICATION_TYPE":"U","BSTAR":"-0.00013479000000","GP_ID":"219932005","SEMIMAJOR_AXIS":"6925.380","LAUNCH_DATE":"2021-05-26","TIME_SYSTEM":"UTC","REF_FRAME":"TEME","RA_OF_ASC_NODE":"2.8546","MEAN_MOTION":"15.06389859","RCS_SIZE":"LARGE","OBJECT_TYPE":"PAYLOAD","EPHEMERIS_TYPE":"0","CENTER_NAME":"EARTH","TLE_LINE2":"2 48690  53.0561   2.8546 0001336  69.9727 290.1406 15.06389859 85602","OBJECT_NAME":"STARLINK-2740","SITE":"AFETR","OBJECT_ID":"2021-044BE","EPOCH":"2022-12-10T08:15:38.418624","COUNTRY_CODE":"US","APOAPSIS":"548.170","MEAN_MOTION_DDOT":"0.0000000000000","ELEMENT_SET_NO":"999"},{"GP_ID":"219932257","CLASSIFICATION_TYPE":"U","BSTAR":"-0.00030809000000","INCLINATION":"53.0557","DECAY_DATE":null,"RA_OF_ASC_NODE":"356.7907","MEAN_MOTION":"15.06412119","REF_FRAME":"TEME","TIME_SYSTEM":"UTC","LAUNCH_DATE":"2021-05-26","SEMIMAJOR_AXIS":"6925.311","MEAN_MOTION_DOT":"-0.00004869","FILE":"3688140","NORAD_CAT_ID":"48691","MEAN_ELEMENT_THEORY":"SGP4","PERIAPSIS":"546.570","MEAN_ANOMALY":"257.2937","REV_AT_EPOCH":"8571","ARG_OF_PERICENTER":"102.8150","PERIOD":"95.591","TLE_LINE1":"1 48691U 21044BF  22344.58238023 -.00004869  00000-0 -30809-3 0  9997","ECCENTRICITY":"0.00008750","OBJECT_ID":"2021-044BF","SITE":"AFETR","OBJECT_NAME":"STARLINK-2750","TLE_LINE2":"2 48691  53.0557 356.7907 0000875 102.8150 257.2937 15.06412119 85715","ELEMENT_SET_NO":"999","MEAN_MOTION_DDOT":"0.0000000000000","APOAPSIS":"547.782","COUNTRY_CODE":"US","EPOCH":"2022-12-10T13:58:37.651872","OBJECT_TYPE":"PAYLOAD","RCS_SIZE":"LARGE","CENTER_NAME":"EARTH","EPHEMERIS_TYPE":"0"},{"RCS_SIZE":"LARGE","OBJECT_TYPE":"PAYLOAD","EPHEMERIS_TYPE":"0","CENTER_NAME":"EARTH","TLE_LINE2":"2 48692  53.0565 357.5663 0001677  67.0427 293.0739 15.06399719 85698","OBJECT_ID":"2021-044BG","OBJECT_NAME":"STARLINK-2752","SITE":"AFETR","COUNTRY_CODE":"US","EPOCH":"2022-12-10T10:26:21.148800","ELEMENT_SET_NO":"999","MEAN_MOTION_DDOT":"0.0000000000000","APOAPSIS":"548.376","PERIAPSIS":"546.053","MEAN_ANOMALY":"293.0739","REV_AT_EPOCH":"8569","NORAD_CAT_ID":"48692","FILE":"3688140","MEAN_MOTION_DOT":"0.00000281","MEAN_ELEMENT_THEORY":"SGP4","ECCENTRICITY":"0.00016770","ARG_OF_PERICENTER":"67.0427","PERIOD":"95.592","TLE_LINE1":"1 48692U 21044BG  22344.43496700  .00000281  00000-0  37735-4 0  9998","GP_ID":"219933004","BSTAR":"0.00003773500000","CLASSIFICATION_TYPE":"U","INCLINATION":"53.0565","DECAY_DATE":null,"TIME_SYSTEM":"UTC","LAUNCH_DATE":"2021-05-26","SEMIMAJOR_AXIS":"6925.349","MEAN_MOTION":"15.06399719","RA_OF_ASC_NODE":"357.5663","REF_FRAME":"TEME"},{"RCS_SIZE":"LARGE","OBJECT_TYPE":"PAYLOAD","EPHEMERIS_TYPE":"0","CENTER_NAME":"EARTH","TLE_LINE2":"2 48693  53.0567   1.8118 0001236  96.4571 263.6558 15.06391586 85643","OBJECT_NAME":"STARLINK-2618","SITE":"AFETR","OBJECT_ID":"2021-044BH","COUNTRY_CODE":"US","EPOCH":"2022-12-10T13:48:39.349152","ELEMENT_SET_NO":"999","APOAPSIS":"548.095","MEAN_MOTION_DDOT":"0.0000000000000","MEAN_ANOMALY":"263.6558","PERIAPSIS":"546.383","REV_AT_EPOCH":"8564","MEAN_ELEMENT_THEORY":"SGP4","MEAN_MOTION_DOT":"0.00001087","FILE":"3688140","NORAD_CAT_ID":"48693","ECCENTRICITY":"0.00012360","ARG_OF_PERICENTER":"96.4571","TLE_LINE1":"1 48693U 21044BH  22344.57545543  .00001087  00000-0  91883-4 0  9993","PERIOD":"95.593","BSTAR":"0.00009188300000","CLASSIFICATION_TYPE":"U","GP_ID":"219931755","DECAY_DATE":null,"INCLINATION":"53.0567","TIME_SYSTEM":"UTC","SEMIMAJOR_AXIS":"6925.374","LAUNCH_DATE":"2021-05-26","REF_FRAME":"TEME","MEAN_MOTION":"15.06391586","RA_OF_ASC_NODE":"1.8118"},{"OBJECT_TYPE":"PAYLOAD","RCS_SIZE":"LARGE","CENTER_NAME":"EARTH","EPHEMERIS_TYPE":"0","SITE":"AFETR","OBJECT_NAME":"STARLINK-2748","OBJECT_ID":"2021-044BJ","TLE_LINE2":"2 48694  53.0568   6.9478 0001751  58.6695 301.4466 15.06399069 86407","ELEMENT_SET_NO":"999","APOAPSIS":"548.429","MEAN_MOTION_DDOT":"0.0000000000000","COUNTRY_CODE":"US","EPOCH":"2022-12-10T13:02:52.591200","MEAN_ELEMENT_THEORY":"SGP4","NORAD_CAT_ID":"48694","FILE":"3688808","MEAN_MOTION_DOT":"-0.00000479","PERIAPSIS":"546.004","MEAN_ANOMALY":"301.4466","REV_AT_EPOCH":"8640","ARG_OF_PERICENTER":"58.6695","TLE_LINE1":"1 48694U 21044BJ  22344.54366425 -.00000479  00000-0 -13236-4 0  9993","PERIOD":"95.592","ECCENTRICITY":"0.00017510","CLASSIFICATION_TYPE":"U","BSTAR":"-0.00001323600000","GP_ID":"219950800","DECAY_DATE":null,"INCLINATION":"53.0568","REF_FRAME":"TEME","MEAN_MOTION":"15.06399069","RA_OF_ASC_NODE":"6.9478","TIME_SYSTEM":"UTC","SEMIMAJOR_AXIS":"6925.351","LAUNCH_DATE":"2021-05-26"},{"BSTAR":"0.00037302000000","CLASSIFICATION_TYPE":"U","GP_ID":"219932757","DECAY_DATE":null,"INCLINATION":"53.0578","REF_FRAME":"TEME","RA_OF_ASC_NODE":"8.0939","MEAN_MOTION":"15.06370551","TIME_SYSTEM":"UTC","SEMIMAJOR_AXIS":"6925.439","LAUNCH_DATE":"2021-05-26","MEAN_ELEMENT_THEORY":"SGP4","NORAD_CAT_ID":"48695","FILE":"3688140","MEAN_MOTION_DOT":"0.00005275","PERIAPSIS":"546.266","MEAN_ANOMALY":"350.9623","REV_AT_EPOCH":"8553","ARG_OF_PERICENTER":"9.1393","PERIOD":"95.594","TLE_LINE1":"1 48695U 21044BK  22344.30135112  .00005275  00000-0  37302-3 0  9991","ECCENTRICITY":"0.00014980","OBJECT_NAME":"STARLINK-2616","SITE":"AFETR","OBJECT_ID":"2021-044BK","TLE_LINE2":"2 48695  53.0578   8.0939 0001498   9.1393 350.9623 15.06370551 85530","ELEMENT_SET_NO":"999","APOAPSIS":"548.341","MEAN_MOTION_DDOT":"0.0000000000000","COUNTRY_CODE":"US","EPOCH":"2022-12-10T07:13:56.736768","OBJECT_TYPE":"PAYLOAD","RCS_SIZE":"LARGE","CENTER_NAME":"EARTH","EPHEMERIS_TYPE":"0"},{"EPHEMERIS_TYPE":"0","CENTER_NAME":"EARTH","RCS_SIZE":"LARGE","OBJECT_TYPE":"PAYLOAD","COUNTRY_CODE":"US","EPOCH":"2022-12-10T13:22:09.665184","ELEMENT_SET_NO":"999","APOAPSIS":"548.078","MEAN_MOTION_DDOT":"0.0000000000000","TLE_LINE2":"2 48696  53.0576  11.9398 0001212  58.0896 302.0210 15.06391866 85505","SITE":"AFETR","OBJECT_NAME":"STARLINK-2753","OBJECT_ID":"2021-044BL","ECCENTRICITY":"0.00012120","ARG_OF_PERICENTER":"58.0896","TLE_LINE1":"1 48696U 21044BL  22344.55705631 -.00000270  00000-0  76238-6 0  9993","PERIOD":"95.593","PERIAPSIS":"546.399","MEAN_ANOMALY":"302.0210","REV_AT_EPOCH":"8550","MEAN_ELEMENT_THEORY":"SGP4","FILE":"3688140","MEAN_MOTION_DOT":"-0.00000270","NORAD_CAT_ID":"48696","TIME_SYSTEM":"UTC","SEMIMAJOR_AXIS":"6925.373","LAUNCH_DATE":"2021-05-26","REF_FRAME":"TEME","RA_OF_ASC_NODE":"11.9398","MEAN_MOTION":"15.06391866","BSTAR":"0.00000076238000","CLASSIFICATION_TYPE":"U","GP_ID":"219932505","DECAY_DATE":null,"INCLINATION":"53.0576"},{"PERIOD":"95.592","TLE_LINE1":"1 48697U 21044BM  22344.58654676 -.00000327  00000-0 -30814-5 0  9992","ARG_OF_PERICENTER":"59.2000","ECCENTRICITY":"0.00014770","MEAN_MOTION_DOT":"-0.00000327","FILE":"3688140","NORAD_CAT_ID":"48697","MEAN_ELEMENT_THEORY":"SGP4","REV_AT_EPOCH":"8550","MEAN_ANOMALY":"300.9134","PERIAPSIS":"546.208","MEAN_MOTION":"15.06394366","RA_OF_ASC_NODE":"11.7719","REF_FRAME":"TEME","LAUNCH_DATE":"2021-05-26","SEMIMAJOR_AXIS":"6925.366","TIME_SYSTEM":"UTC","INCLINATION":"53.0570","DECAY_DATE":null,"GP_ID":"219931256","CLASSIFICATION_TYPE":"U","BSTAR":"-0.00000308140000","CENTER_NAME":"EARTH","EPHEMERIS_TYPE":"0","OBJECT_TYPE":"PAYLOAD","RCS_SIZE":"LARGE","MEAN_MOTION_DDOT":"0.0000000000000","APOAPSIS":"548.254","ELEMENT_SET_NO":"999","EPOCH":"2022-12-10T14:04:37.640064","COUNTRY_CODE":"US","OBJECT_ID":"2021-044BM","SITE":"AFETR","OBJECT_NAME":"STARLINK-2715","TLE_LINE2":"2 48697  53.0570  11.7719 0001477  59.2000 300.9134 15.06394366 85508"}];
